KUIPER-00095            
1 65134U 25171C   25332.16671295 -.00107010  00000+0 -61856-2 0  9995
2 65134  51.8824 242.3156 0006842 140.4283 322.8720 15.12241878  3617
KUIPER-00096            
1 65135U 25171D   25332.16671295  .00023126  00000+0  26432-2 0  9990
2 65135  51.8962 247.1364 0012723 167.3112  65.0374 14.85866354  5073
KUIPER-00097            
1 65136U 25171E   25332.16671295 -.00873714  00000+0 -11276+0 0  9996
2 65136  51.9002 249.6129 0010673 165.4685 157.3539 14.83301330  3513
KUIPER-00098            
1 65137U 25171F   25332.17466208  .00004579  00000+0  62862-3 0  9998
2 65137  51.8984 251.9871 0007948 156.7007 203.4317 14.79968279 17130
KUIPER-00099            
1 65138U 25171G   25332.16671295  .00040566  00000+0  28738-2 0  9991
2 65138  51.8913 243.6428 0006816 186.2015  77.5273 15.04399374  4993
KUIPER-00100            
1 65139U 25171H   25332.16671295 -.00807090  00000+0 -47604-1 0  9999
2 65139  51.9033 242.3619 0002092 180.7578 330.6825 15.13531750  5882
KUIPER-00102            
1 65140U 25171J   25332.16671295 -.01570443  00000+0 -11745+0 0  9996
2 65140  51.8894 243.5257 0011753 160.1676  65.4802 15.05871790  4085
KUIPER-00103            
1 65141U 25171K   25331.18731739 -.00000543  00000+0 -42066-4 0  9991
2 65141  51.9007 263.8476 0005930 147.1986 212.9346 14.79911593 17532
