<?xml version="1.0" encoding="UTF-8"?>
<ndm xmlns:xsi="http://www.w3.org/2001/XMLSchema-instance" xsi:noNamespaceSchemaLocation="https://sanaregistry.org/r/ndmxml_unqualified/ndmxml-2.0.0-master-2.0.xsd">
<omm id="CCSDS_OMM_VERS" version="2.0">
<header><CREATION_DATE/><ORIGINATOR/></header><body><segment><metadata><OBJECT_NAME>KUIPER-00095</OBJECT_NAME><OBJECT_ID>2025-171C</OBJECT_ID><CENTER_NAME>EARTH</CENTER_NAME><REF_FRAME>TEME</REF_FRAME><TIME_SYSTEM>UTC</TIME_SYSTEM><MEAN_ELEMENT_THEORY>SGP4</MEAN_ELEMENT_THEORY></metadata><data><meanElements><EPOCH>2025-11-28T04:00:03.998880</EPOCH><MEAN_MOTION>15.12241878</MEAN_MOTION><ECCENTRICITY>.0006842</ECCENTRICITY><INCLINATION>51.8824</INCLINATION><RA_OF_ASC_NODE>242.3156</RA_OF_ASC_NODE><ARG_OF_PERICENTER>140.4283</ARG_OF_PERICENTER><MEAN_ANOMALY>322.8720</MEAN_ANOMALY></meanElements><tleParameters><EPHEMERIS_TYPE>0</EPHEMERIS_TYPE><CLASSIFICATION_TYPE>U</CLASSIFICATION_TYPE><NORAD_CAT_ID>65134</NORAD_CAT_ID><ELEMENT_SET_NO>999</ELEMENT_SET_NO><REV_AT_EPOCH>361</REV_AT_EPOCH><BSTAR>-.61856E-2</BSTAR><MEAN_MOTION_DOT>-.10701E-2</MEAN_MOTION_DOT><MEAN_MOTION_DDOT>0</MEAN_MOTION_DDOT></tleParameters></data></segment></body></omm>
<omm id="CCSDS_OMM_VERS" version="2.0">
<header><CREATION_DATE/><ORIGINATOR/></header><body><segment><metadata><OBJECT_NAME>KUIPER-00096</OBJECT_NAME><OBJECT_ID>2025-171D</OBJECT_ID><CENTER_NAME>EARTH</CENTER_NAME><REF_FRAME>TEME</REF_FRAME><TIME_SYSTEM>UTC</TIME_SYSTEM><MEAN_ELEMENT_THEORY>SGP4</MEAN_ELEMENT_THEORY></metadata><data><meanElements><EPOCH>2025-11-28T04:00:03.998880</EPOCH><MEAN_MOTION>14.85866354</MEAN_MOTION><ECCENTRICITY>.0012723</ECCENTRICITY><INCLINATION>51.8962</INCLINATION><RA_OF_ASC_NODE>247.1364</RA_OF_ASC_NODE><ARG_OF_PERICENTER>167.3112</ARG_OF_PERICENTER><MEAN_ANOMALY>65.0374</MEAN_ANOMALY></meanElements><tleParameters><EPHEMERIS_TYPE>0</EPHEMERIS_TYPE><CLASSIFICATION_TYPE>U</CLASSIFICATION_TYPE><NORAD_CAT_ID>65135</NORAD_CAT_ID><ELEMENT_SET_NO>999</ELEMENT_SET_NO><REV_AT_EPOCH>507</REV_AT_EPOCH><BSTAR>.26432E-2</BSTAR><MEAN_MOTION_DOT>.23126E-3</MEAN_MOTION_DOT><MEAN_MOTION_DDOT>0</MEAN_MOTION_DDOT></tleParameters></data></segment></body></omm>
<omm id="CCSDS_OMM_VERS" version="2.0">
<header><CREATION_DATE/><ORIGINATOR/></header><body><segment><metadata><OBJECT_NAME>KUIPER-00097</OBJECT_NAME><OBJECT_ID>2025-171E</OBJECT_ID><CENTER_NAME>EARTH</CENTER_NAME><REF_FRAME>TEME</REF_FRAME><TIME_SYSTEM>UTC</TIME_SYSTEM><MEAN_ELEMENT_THEORY>SGP4</MEAN_ELEMENT_THEORY></metadata><data><meanElements><EPOCH>2025-11-28T04:00:03.998880</EPOCH><MEAN_MOTION>14.83301330</MEAN_MOTION><ECCENTRICITY>.0010673</ECCENTRICITY><INCLINATION>51.9002</INCLINATION><RA_OF_ASC_NODE>249.6129</RA_OF_ASC_NODE><ARG_OF_PERICENTER>165.4685</ARG_OF_PERICENTER><MEAN_ANOMALY>157.3539</MEAN_ANOMALY></meanElements><tleParameters><EPHEMERIS_TYPE>0</EPHEMERIS_TYPE><CLASSIFICATION_TYPE>U</CLASSIFICATION_TYPE><NORAD_CAT_ID>65136</NORAD_CAT_ID><ELEMENT_SET_NO>999</ELEMENT_SET_NO><REV_AT_EPOCH>351</REV_AT_EPOCH><BSTAR>-.11276E+0</BSTAR><MEAN_MOTION_DOT>-.873714E-2</MEAN_MOTION_DOT><MEAN_MOTION_DDOT>0</MEAN_MOTION_DDOT></tleParameters></data></segment></body></omm>
<omm id="CCSDS_OMM_VERS" version="2.0">
<header><CREATION_DATE/><ORIGINATOR/></header><body><segment><metadata><OBJECT_NAME>KUIPER-00098</OBJECT_NAME><OBJECT_ID>2025-171F</OBJECT_ID><CENTER_NAME>EARTH</CENTER_NAME><REF_FRAME>TEME</REF_FRAME><TIME_SYSTEM>UTC</TIME_SYSTEM><MEAN_ELEMENT_THEORY>SGP4</MEAN_ELEMENT_THEORY></metadata><data><meanElements><EPOCH>2025-11-28T04:11:30.803712</EPOCH><MEAN_MOTION>14.79968279</MEAN_MOTION><ECCENTRICITY>.0007948</ECCENTRICITY><INCLINATION>51.8984</INCLINATION><RA_OF_ASC_NODE>251.9871</RA_OF_ASC_NODE><ARG_OF_PERICENTER>156.7007</ARG_OF_PERICENTER><MEAN_ANOMALY>203.4317</MEAN_ANOMALY></meanElements><tleParameters><EPHEMERIS_TYPE>0</EPHEMERIS_TYPE><CLASSIFICATION_TYPE>U</CLASSIFICATION_TYPE><NORAD_CAT_ID>65137</NORAD_CAT_ID><ELEMENT_SET_NO>999</ELEMENT_SET_NO><REV_AT_EPOCH>1713</REV_AT_EPOCH><BSTAR>.62862E-3</BSTAR><MEAN_MOTION_DOT>.4579E-4</MEAN_MOTION_DOT><MEAN_MOTION_DDOT>0</MEAN_MOTION_DDOT></tleParameters></data></segment></body></omm>
<omm id="CCSDS_OMM_VERS" version="2.0">
<header><CREATION_DATE/><ORIGINATOR/></header><body><segment><metadata><OBJECT_NAME>KUIPER-00099</OBJECT_NAME><OBJECT_ID>2025-171G</OBJECT_ID><CENTER_NAME>EARTH</CENTER_NAME><REF_FRAME>TEME</REF_FRAME><TIME_SYSTEM>UTC</TIME_SYSTEM><MEAN_ELEMENT_THEORY>SGP4</MEAN_ELEMENT_THEORY></metadata><data><meanElements><EPOCH>2025-11-28T04:00:03.998880</EPOCH><MEAN_MOTION>15.04399374</MEAN_MOTION><ECCENTRICITY>.0006816</ECCENTRICITY><INCLINATION>51.8913</INCLINATION><RA_OF_ASC_NODE>243.6428</RA_OF_ASC_NODE><ARG_OF_PERICENTER>186.2015</ARG_OF_PERICENTER><MEAN_ANOMALY>77.5273</MEAN_ANOMALY></meanElements><tleParameters><EPHEMERIS_TYPE>0</EPHEMERIS_TYPE><CLASSIFICATION_TYPE>U</CLASSIFICATION_TYPE><NORAD_CAT_ID>65138</NORAD_CAT_ID><ELEMENT_SET_NO>999</ELEMENT_SET_NO><REV_AT_EPOCH>499</REV_AT_EPOCH><BSTAR>.28738E-2</BSTAR><MEAN_MOTION_DOT>.40566E-3</MEAN_MOTION_DOT><MEAN_MOTION_DDOT>0</MEAN_MOTION_DDOT></tleParameters></data></segment></body></omm>
<omm id="CCSDS_OMM_VERS" version="2.0">
<header><CREATION_DATE/><ORIGINATOR/></header><body><segment><metadata><OBJECT_NAME>KUIPER-00100</OBJECT_NAME><OBJECT_ID>2025-171H</OBJECT_ID><CENTER_NAME>EARTH</CENTER_NAME><REF_FRAME>TEME</REF_FRAME><TIME_SYSTEM>UTC</TIME_SYSTEM><MEAN_ELEMENT_THEORY>SGP4</MEAN_ELEMENT_THEORY></metadata><data><meanElements><EPOCH>2025-11-28T04:00:03.998880</EPOCH><MEAN_MOTION>15.13531750</MEAN_MOTION><ECCENTRICITY>.0002092</ECCENTRICITY><INCLINATION>51.9033</INCLINATION><RA_OF_ASC_NODE>242.3619</RA_OF_ASC_NODE><ARG_OF_PERICENTER>180.7578</ARG_OF_PERICENTER><MEAN_ANOMALY>330.6825</MEAN_ANOMALY></meanElements><tleParameters><EPHEMERIS_TYPE>0</EPHEMERIS_TYPE><CLASSIFICATION_TYPE>U</CLASSIFICATION_TYPE><NORAD_CAT_ID>65139</NORAD_CAT_ID><ELEMENT_SET_NO>999</ELEMENT_SET_NO><REV_AT_EPOCH>588</REV_AT_EPOCH><BSTAR>-.47604E-1</BSTAR><MEAN_MOTION_DOT>-.80709E-2</MEAN_MOTION_DOT><MEAN_MOTION_DDOT>0</MEAN_MOTION_DDOT></tleParameters></data></segment></body></omm>
<omm id="CCSDS_OMM_VERS" version="2.0">
<header><CREATION_DATE/><ORIGINATOR/></header><body><segment><metadata><OBJECT_NAME>KUIPER-00102</OBJECT_NAME><OBJECT_ID>2025-171J</OBJECT_ID><CENTER_NAME>EARTH</CENTER_NAME><REF_FRAME>TEME</REF_FRAME><TIME_SYSTEM>UTC</TIME_SYSTEM><MEAN_ELEMENT_THEORY>SGP4</MEAN_ELEMENT_THEORY></metadata><data><meanElements><EPOCH>2025-11-28T04:00:03.998880</EPOCH><MEAN_MOTION>15.05871790</MEAN_MOTION><ECCENTRICITY>.0011753</ECCENTRICITY><INCLINATION>51.8894</INCLINATION><RA_OF_ASC_NODE>243.5257</RA_OF_ASC_NODE><ARG_OF_PERICENTER>160.1676</ARG_OF_PERICENTER><MEAN_ANOMALY>65.4802</MEAN_ANOMALY></meanElements><tleParameters><EPHEMERIS_TYPE>0</EPHEMERIS_TYPE><CLASSIFICATION_TYPE>U</CLASSIFICATION_TYPE><NORAD_CAT_ID>65140</NORAD_CAT_ID><ELEMENT_SET_NO>999</ELEMENT_SET_NO><REV_AT_EPOCH>408</REV_AT_EPOCH><BSTAR>-.11745E+0</BSTAR><MEAN_MOTION_DOT>-.1570443E-1</MEAN_MOTION_DOT><MEAN_MOTION_DDOT>0</MEAN_MOTION_DDOT></tleParameters></data></segment></body></omm>
<omm id="CCSDS_OMM_VERS" version="2.0">
<header><CREATION_DATE/><ORIGINATOR/></header><body><segment><metadata><OBJECT_NAME>KUIPER-00103</OBJECT_NAME><OBJECT_ID>2025-171K</OBJECT_ID><CENTER_NAME>EARTH</CENTER_NAME><REF_FRAME>TEME</REF_FRAME><TIME_SYSTEM>UTC</TIME_SYSTEM><MEAN_ELEMENT_THEORY>SGP4</MEAN_ELEMENT_THEORY></metadata><data><meanElements><EPOCH>2025-11-27T04:29:44.222496</EPOCH><MEAN_MOTION>14.79911593</MEAN_MOTION><ECCENTRICITY>.00059301</ECCENTRICITY><INCLINATION>51.9007</INCLINATION><RA_OF_ASC_NODE>263.8476</RA_OF_ASC_NODE><ARG_OF_PERICENTER>147.1986</ARG_OF_PERICENTER><MEAN_ANOMALY>212.9346</MEAN_ANOMALY></meanElements><tleParameters><EPHEMERIS_TYPE>0</EPHEMERIS_TYPE><CLASSIFICATION_TYPE>U</CLASSIFICATION_TYPE><NORAD_CAT_ID>65141</NORAD_CAT_ID><ELEMENT_SET_NO>999</ELEMENT_SET_NO><REV_AT_EPOCH>1753</REV_AT_EPOCH><BSTAR>-.42065605E-4</BSTAR><MEAN_MOTION_DOT>-.543E-5</MEAN_MOTION_DOT><MEAN_MOTION_DDOT>0</MEAN_MOTION_DDOT></tleParameters></data></segment></body></omm>

</ndm>
